IRIDIUM 159             
1 43578U 18061K   24133.91534450  .00000030  00000+0  38015-5 0  9991
2 43578  86.4003  16.5237 0002412  88.7646 271.3826 14.34225731303694
IRIDIUM 176             
1 43923U 19002B   24133.91068285  .00001286  00000+0  20004-3 0  9990
2 43923  86.6062 313.4450 0002543  92.6319 267.5189 14.72254435286657
IRIDIUM 168             
1 43924U 19002C   24133.90850463  .00000335  00000+0  11239-3 0  9991
2 43924  86.3936 313.4772 0002178  92.7970 267.3475 14.34219474279289
IRIDIUM 172             
1 43927U 19002F   24133.95924094  .00000275  00000+0  91019-4 0  9999
2 43927  86.3932 313.3818 0002198  92.6776 267.4671 14.34219898279282
IRIDIUM 175             
1 43928U 19002G   24133.90480324  .00004423  00000+0  69693-3 0  9999
2 43928  86.1478 288.5712 0002280  85.4012 274.7464 14.72267872286643
